[{"OBJECT_NAME":"BRO-11","OBJECT_ID":"2023-174J","EPOCH":"2026-03-09T23:01:09.890400","MEAN_MOTION":15.26267731,"ECCENTRICITY":0.00104518,"INCLINATION":97.3961,"RA_OF_ASC_NODE":146.7679,"ARG_OF_PERICENTER":189.9892,"MEAN_ANOMALY":170.1141,"EPHEMERIS_TYPE":0,"CLASSIFICATION_TYPE":"U","NORAD_CAT_ID":58264,"ELEMENT_SET_NO":999,"REV_AT_EPOCH":12961,"BSTAR":0.00032296323,"MEAN_MOTION_DOT":8.313e-5,"MEAN_MOTION_DDOT":0},{"OBJECT_NAME":"STARLINK-35474","OBJECT_ID":"2025-259R","EPOCH":"2026-03-09T14:03:22.642272","MEAN_MOTION":15.27586274,"ECCENTRICITY":0.0001422,"INCLINATION":42.9986,"RA_OF_ASC_NODE":275.0808,"ARG_OF_PERICENTER":254.6465,"MEAN_ANOMALY":105.423,"EPHEMERIS_TYPE":0,"CLASSIFICATION_TYPE":"U","NORAD_CAT_ID":66437,"ELEMENT_SET_NO":999,"REV_AT_EPOCH":1947,"BSTAR":0.00094844,"MEAN_MOTION_DOT":0.00025934,"MEAN_MOTION_DDOT":0}]
